NOAA 18                 
1 28654U 05018A   23011.56314794  .00000278  00000+0  17359-3 0  9999
2 28654  98.9282  86.6147 0015219 103.1922 257.0949 14.12837234909361